[{"OBJECT_NAME":"SATELIOT_1","OBJECT_ID":"2024-149CL","EPOCH":"2026-03-09T18:08:18.068352","MEAN_MOTION":14.97604186,"ECCENTRICITY":0.00077489,"INCLINATION":97.6798,"RA_OF_ASC_NODE":146.3176,"ARG_OF_PERICENTER":58.9869,"MEAN_ANOMALY":301.2113,"EPHEMERIS_TYPE":0,"CLASSIFICATION_TYPE":"U","NORAD_CAT_ID":60550,"ELEMENT_SET_NO":999,"REV_AT_EPOCH":8518,"BSTAR":0.00029754021,"MEAN_MOTION_DOT":3.421e-5,"MEAN_MOTION_DDOT":0},{"OBJECT_NAME":"STARLINK-35957","OBJECT_ID":"2025-280C","EPOCH":"2026-03-09T22:09:10.953216","MEAN_MOTION":14.98331638,"ECCENTRICITY":0.00018765,"INCLINATION":70.0036,"RA_OF_ASC_NODE":333.7557,"ARG_OF_PERICENTER":245.3826,"MEAN_ANOMALY":114.7138,"EPHEMERIS_TYPE":0,"CLASSIFICATION_TYPE":"U","NORAD_CAT_ID":66823,"ELEMENT_SET_NO":999,"REV_AT_EPOCH":1611,"BSTAR":0.00065365909,"MEAN_MOTION_DOT":7.715e-5,"MEAN_MOTION_DDOT":0}]
